[{"OBJECT_NAME":"STARLINK-2475","OBJECT_ID":"2021-027AT","EPOCH":"2023-10-21T21:52:14.427840","MEAN_MOTION":15.06407188,"ECCENTRICITY":0.0001343,"INCLINATION":53.0527,"RA_OF_ASC_NODE":116.2025,"ARG_OF_PERICENTER":89.9288,"MEAN_ANOMALY":270.1855,"EPHEMERIS_TYPE":0,"CLASSIFICATION_TYPE":"U","NORAD_CAT_ID":48133,"ELEMENT_SET_NO":999,"REV_AT_EPOCH":14092,"BSTAR":0.0001005,"MEAN_MOTION_DOT":1.216e-5,"MEAN_MOTION_DDOT":0},{"OBJECT_NAME":"STARLINK-2476","OBJECT_ID":"2021-027AU","EPOCH":"2023-10-22T11:50:53.923488","MEAN_MOTION":15.06391965,"ECCENTRICITY":0.0001902,"INCLINATION":53.0536,"RA_OF_ASC_NODE":113.5918,"ARG_OF_PERICENTER":83.6056,"MEAN_ANOMALY":276.5149,"EPHEMERIS_TYPE":0,"CLASSIFICATION_TYPE":"U","NORAD_CAT_ID":48134,"ELEMENT_SET_NO":999,"REV_AT_EPOCH":14101,"BSTAR":0.00030043,"MEAN_MOTION_DOT":4.195e-5,"MEAN_MOTION_DDOT":0},{"OBJECT_NAME":"STARLINK-2478","OBJECT_ID":"2021-027AV","EPOCH":"2023-10-22T05:30:44.947296","MEAN_MOTION":15.06391224,"ECCENTRICITY":0.0001324,"INCLINATION":53.0532,"RA_OF_ASC_NODE":119.941,"ARG_OF_PERICENTER":99.8319,"MEAN_ANOMALY":260.282,"EPHEMERIS_TYPE":0,"CLASSIFICATION_TYPE":"U","NORAD_CAT_ID":48135,"ELEMENT_SET_NO":999,"REV_AT_EPOCH":14129,"BSTAR":0.00019048,"MEAN_MOTION_DOT":2.556e-5,"MEAN_MOTION_DDOT":0},{"OBJECT_NAME":"STARLINK-2479","OBJECT_ID":"2021-027AW","EPOCH":"2023-10-22T12:26:40.786368","MEAN_MOTION":15.06401795,"ECCENTRICITY":0.0001081,"INCLINATION":53.0522,"RA_OF_ASC_NODE":113.4709,"ARG_OF_PERICENTER":76.7817,"MEAN_ANOMALY":283.3292,"EPHEMERIS_TYPE":0,"CLASSIFICATION_TYPE":"U","NORAD_CAT_ID":48136,"ELEMENT_SET_NO":999,"REV_AT_EPOCH":14101,"BSTAR":3.9902e-5,"MEAN_MOTION_DOT":3.13e-6,"MEAN_MOTION_DDOT":0},{"OBJECT_NAME":"STARLINK-2480","OBJECT_ID":"2021-027AX","EPOCH":"2023-10-22T14:38:03.695136","MEAN_MOTION":15.06381909,"ECCENTRICITY":0.0001356,"INCLINATION":53.0533,"RA_OF_ASC_NODE":93.0408,"ARG_OF_PERICENTER":91.7978,"MEAN_ANOMALY":268.3166,"EPHEMERIS_TYPE":0,"CLASSIFICATION_TYPE":"U","NORAD_CAT_ID":48137,"ELEMENT_SET_NO":999,"REV_AT_EPOCH":14170,"BSTAR":-0.00042829,"MEAN_MOTION_DOT":-6.652e-5,"MEAN_MOTION_DDOT":0},{"OBJECT_NAME":"STARLINK-2481","OBJECT_ID":"2021-027AY","EPOCH":"2023-10-21T21:46:55.344000","MEAN_MOTION":15.06410658,"ECCENTRICITY":0.0001309,"INCLINATION":53.0534,"RA_OF_ASC_NODE":116.2206,"ARG_OF_PERICENTER":90.0797,"MEAN_ANOMALY":270.0342,"EPHEMERIS_TYPE":0,"CLASSIFICATION_TYPE":"U","NORAD_CAT_ID":48138,"ELEMENT_SET_NO":999,"REV_AT_EPOCH":14132,"BSTAR":0.00024544,"MEAN_MOTION_DOT":3.377e-5,"MEAN_MOTION_DDOT":0},{"OBJECT_NAME":"STARLINK-2482","OBJECT_ID":"2021-027AZ","EPOCH":"2023-10-22T13:29:05.091072","MEAN_MOTION":15.06386061,"ECCENTRICITY":0.0001285,"INCLINATION":53.0551,"RA_OF_ASC_NODE":93.2831,"ARG_OF_PERICENTER":82.3608,"MEAN_ANOMALY":277.7527,"EPHEMERIS_TYPE":0,"CLASSIFICATION_TYPE":"U","NORAD_CAT_ID":48139,"ELEMENT_SET_NO":999,"REV_AT_EPOCH":14170,"BSTAR":-7.673e-5,"MEAN_MOTION_DOT":-1.424e-5,"MEAN_MOTION_DDOT":0},{"OBJECT_NAME":"STARLINK-2483","OBJECT_ID":"2021-027BA","EPOCH":"2023-10-22T12:42:36.556992","MEAN_MOTION":15.06394205,"ECCENTRICITY":0.0001887,"INCLINATION":53.0527,"RA_OF_ASC_NODE":113.4271,"ARG_OF_PERICENTER":83.3145,"MEAN_ANOMALY":276.8059,"EPHEMERIS_TYPE":0,"CLASSIFICATION_TYPE":"U","NORAD_CAT_ID":48140,"ELEMENT_SET_NO":999,"REV_AT_EPOCH":14141,"BSTAR":0.0001533,"MEAN_MOTION_DOT":2.002e-5,"MEAN_MOTION_DDOT":0},{"OBJECT_NAME":"STARLINK-2484","OBJECT_ID":"2021-027BB","EPOCH":"2023-10-22T05:18:06.948000","MEAN_MOTION":15.06391444,"ECCENTRICITY":0.0001545,"INCLINATION":53.054,"RA_OF_ASC_NODE":114.8155,"ARG_OF_PERICENTER":92.8387,"MEAN_ANOMALY":267.2778,"EPHEMERIS_TYPE":0,"CLASSIFICATION_TYPE":"U","NORAD_CAT_ID":48141,"ELEMENT_SET_NO":999,"REV_AT_EPOCH":14138,"BSTAR":8.185e-5,"MEAN_MOTION_DOT":9.38e-6,"MEAN_MOTION_DDOT":0},{"OBJECT_NAME":"STARLINK-2485","OBJECT_ID":"2021-027BC","EPOCH":"2023-10-22T14:59:18.080448","MEAN_MOTION":15.06383355,"ECCENTRICITY":0.0001319,"INCLINATION":53.0545,"RA_OF_ASC_NODE":93.0025,"ARG_OF_PERICENTER":99.6882,"MEAN_ANOMALY":260.4256,"EPHEMERIS_TYPE":0,"CLASSIFICATION_TYPE":"U","NORAD_CAT_ID":48142,"ELEMENT_SET_NO":999,"REV_AT_EPOCH":14171,"BSTAR":-0.00034324,"MEAN_MOTION_DOT":-5.388e-5,"MEAN_MOTION_DDOT":0},{"OBJECT_NAME":"STARLINK-2486","OBJECT_ID":"2021-027BD","EPOCH":"2023-10-22T14:46:43.868064","MEAN_MOTION":15.06362046,"ECCENTRICITY":0.0001413,"INCLINATION":53.056,"RA_OF_ASC_NODE":48.1378,"ARG_OF_PERICENTER":109.1533,"MEAN_ANOMALY":250.9609,"EPHEMERIS_TYPE":0,"CLASSIFICATION_TYPE":"U","NORAD_CAT_ID":48143,"ELEMENT_SET_NO":999,"REV_AT_EPOCH":14233,"BSTAR":0.0008828,"MEAN_MOTION_DOT":0.00012879,"MEAN_MOTION_DDOT":0},{"OBJECT_NAME":"STARLINK-2487","OBJECT_ID":"2021-027BE","EPOCH":"2023-10-22T13:34:22.982592","MEAN_MOTION":15.06387324,"ECCENTRICITY":0.0001466,"INCLINATION":53.0545,"RA_OF_ASC_NODE":93.2623,"ARG_OF_PERICENTER":91.2886,"MEAN_ANOMALY":268.827,"EPHEMERIS_TYPE":0,"CLASSIFICATION_TYPE":"U","NORAD_CAT_ID":48144,"ELEMENT_SET_NO":999,"REV_AT_EPOCH":14169,"BSTAR":0.00013611,"MEAN_MOTION_DOT":1.746e-5,"MEAN_MOTION_DDOT":0},{"OBJECT_NAME":"STARLINK-2488","OBJECT_ID":"2021-027BF","EPOCH":"2023-10-22T13:39:41.833152","MEAN_MOTION":15.064056,"ECCENTRICITY":0.0001194,"INCLINATION":53.0532,"RA_OF_ASC_NODE":93.2514,"ARG_OF_PERICENTER":101.5738,"MEAN_ANOMALY":258.5385,"EPHEMERIS_TYPE":0,"CLASSIFICATION_TYPE":"U","NORAD_CAT_ID":48145,"ELEMENT_SET_NO":999,"REV_AT_EPOCH":14170,"BSTAR":-0.00095241,"MEAN_MOTION_DOT":-0.00014441,"MEAN_MOTION_DDOT":0},{"OBJECT_NAME":"STARLINK-2489","OBJECT_ID":"2021-027BG","EPOCH":"2023-10-22T05:39:21.253824","MEAN_MOTION":15.06399457,"ECCENTRICITY":0.000213,"INCLINATION":53.0555,"RA_OF_ASC_NODE":114.7547,"ARG_OF_PERICENTER":89.97,"MEAN_ANOMALY":270.1533,"EPHEMERIS_TYPE":0,"CLASSIFICATION_TYPE":"U","NORAD_CAT_ID":48146,"ELEMENT_SET_NO":999,"REV_AT_EPOCH":14137,"BSTAR":-1.3627e-5,"MEAN_MOTION_DOT":-4.85e-6,"MEAN_MOTION_DDOT":0},{"OBJECT_NAME":"STARLINK-2490","OBJECT_ID":"2021-027BH","EPOCH":"2023-10-22T05:36:02.044800","MEAN_MOTION":15.06390793,"ECCENTRICITY":3.11e-5,"INCLINATION":53.0532,"RA_OF_ASC_NODE":119.7606,"ARG_OF_PERICENTER":119.8308,"MEAN_ANOMALY":240.2712,"EPHEMERIS_TYPE":0,"CLASSIFICATION_TYPE":"U","NORAD_CAT_ID":48147,"ELEMENT_SET_NO":999,"REV_AT_EPOCH":14130,"BSTAR":0.000339,"MEAN_MOTION_DOT":4.771e-5,"MEAN_MOTION_DDOT":0},{"OBJECT_NAME":"STARLINK-2491","OBJECT_ID":"2021-027BJ","EPOCH":"2023-10-22T12:49:16.392000","MEAN_MOTION":15.06387586,"ECCENTRICITY":0.0001648,"INCLINATION":53.0542,"RA_OF_ASC_NODE":113.4084,"ARG_OF_PERICENTER":86.3469,"MEAN_ANOMALY":273.7708,"EPHEMERIS_TYPE":0,"CLASSIFICATION_TYPE":"U","NORAD_CAT_ID":48148,"ELEMENT_SET_NO":999,"REV_AT_EPOCH":14101,"BSTAR":-0.00017457,"MEAN_MOTION_DOT":-2.88e-5,"MEAN_MOTION_DDOT":0}]
