STARLINK-2475           
1 48133U 21027AT  23294.91127810  .00001216  00000+0  10050-3 0  9998
2 48133  53.0527 116.2025 0001343  89.9288 270.1855 15.06407188140929
STARLINK-2476           
1 48134U 21027AU  23295.49367967  .00004195  00000+0  30043-3 0  9995
2 48134  53.0536 113.5918 0001902  83.6056 276.5149 15.06391965141018
STARLINK-2478           
1 48135U 21027AV  23295.22968689  .00002556  00000+0  19048-3 0  9996
2 48135  53.0532 119.9410 0001324  99.8319 260.2820 15.06391224141295
STARLINK-2479           
1 48136U 21027AW  23295.51852762  .00000313  00000+0  39902-4 0  9994
2 48136  53.0522 113.4709 0001081  76.7817 283.3292 15.06401795141016
STARLINK-2480           
1 48137U 21027AX  23295.60976499 -.00006652  00000+0 -42829-3 0  9994
2 48137  53.0533  93.0408 0001356  91.7978 268.3166 15.06381909141701
STARLINK-2481           
1 48138U 21027AY  23294.90758500  .00003377  00000+0  24544-3 0  9991
2 48138  53.0534 116.2206 0001309  90.0797 270.0342 15.06410658141324
STARLINK-2482           
1 48139U 21027AZ  23295.56186448 -.00001424  00000+0 -76730-4 0  9999
2 48139  53.0551  93.2831 0001285  82.3608 277.7527 15.06386061141701
STARLINK-2483           
1 48140U 21027BA  23295.52958978  .00002002  00000+0  15330-3 0  9991
2 48140  53.0527 113.4271 0001887  83.3145 276.8059 15.06394205141411
STARLINK-2484           
1 48141U 21027BB  23295.22091375  .00000938  00000+0  81850-4 0  9995
2 48141  53.0540 114.8155 0001545  92.8387 267.2778 15.06391444141387
STARLINK-2485           
1 48142U 21027BC  23295.62451482 -.00005388  00000+0 -34324-3 0  9998
2 48142  53.0545  93.0025 0001319  99.6882 260.4256 15.06383355141716
STARLINK-2486           
1 48143U 21027BD  23295.61578551  .00012879  00000+0  88280-3 0  9996
2 48143  53.0560  48.1378 0001413 109.1533 250.9609 15.06362046142330
STARLINK-2487           
1 48144U 21027BE  23295.56554378  .00001746  00000+0  13611-3 0  9999
2 48144  53.0545  93.2623 0001466  91.2886 268.8270 15.06387324141694
STARLINK-2488           
1 48145U 21027BF  23295.56923418 -.00014441  00000+0 -95241-3 0  9992
2 48145  53.0532  93.2514 0001194 101.5738 258.5385 15.06405600141702
STARLINK-2489           
1 48146U 21027BG  23295.23566266 -.00000485  00000+0 -13627-4 0  9993
2 48146  53.0555 114.7547 0002130  89.9700 270.1533 15.06399457141372
STARLINK-2490           
1 48147U 21027BH  23295.23335700  .00004771  00000+0  33900-3 0  9996
2 48147  53.0532 119.7606 0000311 119.8308 240.2712 15.06390793141309
STARLINK-2491           
1 48148U 21027BJ  23295.53421750 -.00002880  00000+0 -17457-3 0  9991
2 48148  53.0542 113.4084 0001648  86.3469 273.7708 15.06387586141012
